[{"OBJECT_NAME":"VSP RF B1","OBJECT_ID":"2024-043AR","EPOCH":"2026-03-09T22:40:29.479296","MEAN_MOTION":15.26694159,"ECCENTRICITY":0.00102608,"INCLINATION":97.5446,"RA_OF_ASC_NODE":204.7052,"ARG_OF_PERICENTER":220.7435,"MEAN_ANOMALY":139.3037,"EPHEMERIS_TYPE":0,"CLASSIFICATION_TYPE":"U","NORAD_CAT_ID":59137,"ELEMENT_SET_NO":999,"REV_AT_EPOCH":11187,"BSTAR":0.00024406819,"MEAN_MOTION_DOT":6.341e-5,"MEAN_MOTION_DDOT":0},{"OBJECT_NAME":"STARLINK-36080","OBJECT_ID":"2025-278L","EPOCH":"2026-03-09T13:16:27.554880","MEAN_MOTION":15.27585483,"ECCENTRICITY":0.0002022,"INCLINATION":43.0031,"RA_OF_ASC_NODE":115.5345,"ARG_OF_PERICENTER":263.5318,"MEAN_ANOMALY":96.5303,"EPHEMERIS_TYPE":0,"CLASSIFICATION_TYPE":"U","NORAD_CAT_ID":66801,"ELEMENT_SET_NO":999,"REV_AT_EPOCH":1518,"BSTAR":0.00075479,"MEAN_MOTION_DOT":0.0002057,"MEAN_MOTION_DDOT":0}]
